CUTE-1 (CO-55)          
1 27844U 03031E   26173.72726103  .00000201  00000+0  10595-3 0  9994
2 27844  98.6736 182.2165 0009866 162.2410 197.9116 14.24338450192466
CUBESAT XI-IV (CO-57)   
1 27848U 03031J   26173.43736598  .00000176  00000+0  96419-4 0  9996
2 27848  98.6767 181.6388 0009388 181.3421 178.7734 14.23623160192127
CUBESAT XI-V            
1 28895U 05043F   26173.70240492  .00000991  00000+0  16368-3 0  9996
2 28895  98.2990 329.4398 0014027 182.9407 177.1719 14.72643296102565
CUTE-1.7+APD II (CO-65) 
1 32785U 08021C   26173.81711056  .00004099  00000+0  25978-3 0  9999
2 32785  97.8280 155.3526 0009270  21.9068 338.2554 15.09498177986040
CANX-2                  
1 32790U 08021H   26173.87075167  .00002974  00000+0  21026-3 0  9997
2 32790  97.8642 153.7588 0011242  34.6906 325.5051 15.05654287985662
SEEDS II (CO-66)        
1 32791U 08021J   26173.42331423  .00013901  00000+0  43974-3 0  9997
2 32791  97.7527 171.5713 0000370 315.0344  45.0867 15.32901579988092
SWISSCUBE               
1 35932U 09051B   26173.29995435  .00000690  00000+0  14600-3 0  9990
2 35932  98.4032  81.2773 0006322 185.7057 174.4073 14.62489443889909
BEESAT-1                
1 35933U 09051C   26173.31205070  .00000574  00000+0  12495-3 0  9994
2 35933  98.3960  80.9143 0004539 198.1423 161.9616 14.61727124889936
ITUPSAT1                
1 35935U 09051E   26173.30742868  .00000516  00000+0  11648-3 0  9991
2 35935  98.4044  80.0961 0006492 215.3057 144.7713 14.60446745889489
TISAT 1                 
1 36799U 10035E   26173.66967442  .00016224  00000+0  52928-3 0  9999
2 36799  98.0702 120.7053 0002127 158.6465 201.4864 15.31884613868543
AEROCUBE 4.5A           
1 38767U 12048K   26172.72941205  .00564404  14931-3  10274-2 0  9994
2 38767  64.6229  10.1866 0018707 234.8509 125.0904 16.00807088373381
STRAND-1                
1 39090U 13009E   26173.48650387  .00000193  00000+0  79259-4 0  9992
2 39090  98.3925 353.5904 0008012 207.9512 152.1246 14.37165718697821
BRITE-AUSTRIA           
1 39091U 13009F   26173.43201783  .00000119  00000+0  55017-4 0  9994
2 39091  98.3998 352.7378 0009383 219.2223 140.8284 14.36543788697805
NEE-01 PEGASO           
1 39151U 13018B   26173.35687101  .00002434  00000+0  23560-3 0  9993
2 39151  98.1232 317.6780 0013504 142.4574 217.7590 14.93683879711477
POPACS 2                
1 39269U 13055E   26173.34323217  .00010822  00000+0  18212-3 0  9996
2 39269  80.9904 138.2899 0416673 177.2190 183.1498 14.91330231663988
POPACS 3                
1 39270U 13055F   26173.54764881  .00007999  00000+0  18813-3 0  9994
2 39270  80.9999 223.3751 0551618  53.6796 311.4033 14.56207010639337
ZACUBE-1 (TSHEPISOSAT)  
1 39417U 13066B   26173.33975722  .00002077  00000+0  16390-3 0  9994
2 39417  97.8063 135.7033 0041482 229.9888 129.7692 15.01210891681500
WNISAT-1                
1 39423U 13066H   26173.70119061  .00000728  00000+0  14120-3 0  9998
2 39423  97.7208 322.4662 0162297 214.1161 144.9526 14.58070397667536
TRITON-1                
1 39427U 13066M   26173.69812397  .00001051  00000+0  13145-3 0  9998
2 39427  97.8236  83.3793 0088791 215.6588 143.8674 14.81718746674909
GOMX-1                  
1 39430U 13066Q   26173.83766495  .00001427  00000+0  21904-3 0  9994
2 39430  97.6484  13.9436 0129962  59.6466 301.7518 14.69476850670749
CUBEBUG-2 (LO-74)       
1 39440U 13066AA  26173.42199251  .00003222  00000+0  29961-3 0  9996
2 39440  97.8906 122.4220 0057991  11.9910 348.2675 14.93801192677773
NEE-02 KRYSAOR          
1 39441U 13066AB  26172.78610333  .00001673  00000+0  18718-3 0  9990
2 39441  97.8893 111.9678 0067456  55.4248 305.3307 14.86634214676881
FUNCUBE-1 (AO-73)       
1 39444U 13066AE  26173.42589928  .00004268  00000+0  26631-3 0  9996
2 39444  97.8272 144.9807 0036208 182.8900 177.2125 15.09537633680451
UWE-3                   
1 39446U 13066AG  26173.42913192  .00003661  00000+0  31600-3 0  9990
2 39446  97.8705 129.5379 0046984 303.4981  56.1755 14.97061756678364
BRITE-CA1 (TORONTO)     
1 40020U 14033L   26173.67717501  .00000548  00000+0  90186-4 0  9994
2 40020  97.9745 302.5040 0077240 259.1141 100.1368 14.72683180643020
DUCHIFAT-1              
1 40021U 14033M   26172.68931042  .00086182  00000+0  85879-3 0  9993
2 40021  98.0446 232.4851 0002282 109.8910 250.2594 15.65399754656454
NANOSATC-BR1            
1 40024U 14033Q   26173.04028844  .00013112  00000+0  43233-3 0  9995
2 40024  98.0725 205.8585 0004777 150.5546 209.5963 15.31587062654723
QB50P1                  
1 40025U 14033R   26173.48836471  .00005984  00000+0  29507-3 0  9993
2 40025  98.0967 185.0059 0008326 195.8641 164.2332 15.18326980653832
QB50P2                  
1 40032U 14033Y   26173.71348179  .00004982  00000+0  26896-3 0  9995
2 40032  98.0756 170.9379 0008552 146.3067 213.8709 15.15218564653506
PERSEUS-M2              
1 40037U 14033AD  26173.75028770  .00001963  00000+0  18250-3 0  9997
2 40037  97.9966 124.4036 0010052 283.9166  76.0935 14.95527604651617
